{
  "type": "FeatureCollection",
  "features": [
    {
      "type": "Feature",
      "id": "costa-mesa",
      "properties": {
        "slug": "costa-mesa",
        "name": "Costa Mesa",
        "kind": "city",
        "parentSlug": null,
        "precision": "approximate",
        "reviewedOn": null,
        "boundaryNote": "CRMLS City = Costa Mesa.",
        "subdivisionNames": [],
        "streetNames": [],
        "postalCodes": [
          "92626",
          "92627",
          "92628"
        ],
        "mlsCity": "Costa Mesa",
        "mlsCityAliases": [],
        "umbrellaMlsCity": null,
        "coverage": "matchers",
        "centroid": null,
        "pageUrl": "/cities/costa-mesa"
      },
      "geometry": null
    }
  ]
}