{
  "type": "FeatureCollection",
  "features": [
    {
      "type": "Feature",
      "id": "davenport-island",
      "properties": {
        "slug": "davenport-island",
        "name": "Davenport Island",
        "kind": "community",
        "parentSlug": "huntington-harbour",
        "precision": "approximate",
        "reviewedOn": null,
        "boundaryNote": "The southernmost island, reached from Saybrook Lane via Davenport Drive, south of Humboldt Island and north of Warner Avenue.",
        "subdivisionNames": [
          "Davenport Island",
          "Davenport"
        ],
        "streetNames": [
          "Davenport"
        ],
        "postalCodes": [
          "92649"
        ],
        "mlsCity": null,
        "mlsCityAliases": [],
        "umbrellaMlsCity": null,
        "coverage": "polygon",
        "centroid": [
          -118.05364999515787,
          33.71714999868305
        ],
        "pageUrl": "/communities/davenport-island"
      },
      "geometry": {
        "type": "Polygon",
        "coordinates": [
          [
            [
              -118.0558,
              33.7145
            ],
            [
              -118.0515,
              33.7145
            ],
            [
              -118.0515,
              33.7198
            ],
            [
              -118.0558,
              33.7198
            ],
            [
              -118.0558,
              33.7145
            ]
          ]
        ]
      }
    }
  ]
}