{
  "type": "FeatureCollection",
  "features": [
    {
      "type": "Feature",
      "id": "fountain-valley",
      "properties": {
        "slug": "fountain-valley",
        "name": "Fountain Valley",
        "kind": "city",
        "parentSlug": null,
        "precision": "approximate",
        "reviewedOn": null,
        "boundaryNote": "CRMLS City = Fountain Valley.",
        "subdivisionNames": [],
        "streetNames": [],
        "postalCodes": [
          "92708",
          "92728"
        ],
        "mlsCity": "Fountain Valley",
        "mlsCityAliases": [],
        "umbrellaMlsCity": null,
        "coverage": "matchers",
        "centroid": null,
        "pageUrl": "/cities/fountain-valley"
      },
      "geometry": null
    }
  ]
}