{
  "type": "FeatureCollection",
  "features": [
    {
      "type": "Feature",
      "id": "irvine",
      "properties": {
        "slug": "irvine",
        "name": "Irvine",
        "kind": "city",
        "parentSlug": null,
        "precision": "approximate",
        "reviewedOn": null,
        "boundaryNote": "CRMLS City = Irvine.",
        "subdivisionNames": [],
        "streetNames": [],
        "postalCodes": [
          "92602",
          "92603",
          "92604",
          "92606",
          "92612",
          "92614",
          "92617",
          "92618",
          "92620"
        ],
        "mlsCity": "Irvine",
        "mlsCityAliases": [],
        "centroid": null,
        "pageUrl": "/cities/irvine"
      },
      "geometry": null
    }
  ]
}