{
  "type": "FeatureCollection",
  "features": [
    {
      "type": "Feature",
      "id": "newport-coast",
      "properties": {
        "slug": "newport-coast",
        "name": "Newport Coast",
        "kind": "city",
        "parentSlug": null,
        "precision": "approximate",
        "reviewedOn": null,
        "boundaryNote": "CRMLS City = Newport Coast, or Newport Beach with postal code 92657 (the umbrella mapping catches those).",
        "subdivisionNames": [],
        "streetNames": [],
        "postalCodes": [
          "92657"
        ],
        "mlsCity": "Newport Coast",
        "mlsCityAliases": [],
        "umbrellaMlsCity": "Newport Beach",
        "coverage": "matchers",
        "centroid": null,
        "pageUrl": "/cities/newport-coast"
      },
      "geometry": null
    }
  ]
}