{
  "type": "FeatureCollection",
  "features": [
    {
      "type": "Feature",
      "id": "seal-beach",
      "properties": {
        "slug": "seal-beach",
        "name": "Seal Beach",
        "kind": "city",
        "parentSlug": null,
        "precision": "approximate",
        "reviewedOn": null,
        "boundaryNote": "CRMLS City = Seal Beach.",
        "subdivisionNames": [],
        "streetNames": [],
        "postalCodes": [
          "90740"
        ],
        "mlsCity": "Seal Beach",
        "mlsCityAliases": [],
        "umbrellaMlsCity": null,
        "coverage": "matchers",
        "centroid": null,
        "pageUrl": "/cities/seal-beach"
      },
      "geometry": null
    }
  ]
}