{
  "type": "FeatureCollection",
  "features": [
    {
      "type": "Feature",
      "id": "westminster",
      "properties": {
        "slug": "westminster",
        "name": "Westminster",
        "kind": "city",
        "parentSlug": null,
        "precision": "approximate",
        "reviewedOn": null,
        "boundaryNote": "CRMLS City = Westminster.",
        "subdivisionNames": [],
        "streetNames": [],
        "postalCodes": [
          "92683"
        ],
        "mlsCity": "Westminster",
        "mlsCityAliases": [],
        "umbrellaMlsCity": null,
        "coverage": "matchers",
        "centroid": null,
        "pageUrl": "/cities/westminster"
      },
      "geometry": null
    }
  ]
}